{
  "norad_id": 49390,
  "name": "YAOGAN-35 01A",
  "history": [
    {
      "epoch": "2026-03-28T23:02:02.616864Z",
      "apogee_km": 493.38070274643724,
      "perigee_km": 486.26412320271265,
      "latitude_deg": -2.503579988001855e-05,
      "longitude_deg": -109.0381503606628,
      "height_km": 485.262813930793,
      "semi_major_axis_km": 6867.959412974575,
      "eccentricity": 0.0005181,
      "inclination_deg": 34.9897,
      "raan_deg": 62.8455,
      "arg_perigee_deg": 346.9379,
      "mean_anomaly_deg": 13.1201,
      "mean_motion_rev_day": 15.25320763
    },
    {
      "epoch": "2026-03-29T05:19:02.720064Z",
      "apogee_km": 493.31317645146373,
      "perigee_km": 486.2735478302702,
      "latitude_deg": -2.6987447202416064e-05,
      "longitude_deg": 154.80086845546165,
      "height_km": 485.2424824431997,
      "semi_major_axis_km": 6867.930362140867,
      "eccentricity": 0.0005125,
      "inclination_deg": 34.9898,
      "raan_deg": 61.193,
      "arg_perigee_deg": 349.1903,
      "mean_anomaly_deg": 10.8701,
      "mean_motion_rev_day": 15.25330441
    },
    {
      "epoch": "2026-03-30T04:52:47.239392Z",
      "apogee_km": 493.1069422739338,
      "perigee_km": 486.3228781570233,
      "latitude_deg": -3.330000313021866e-06,
      "longitude_deg": 154.20043349179755,
      "height_km": 485.23034409011774,
      "semi_major_axis_km": 6867.851910215479,
      "eccentricity": 0.0004939,
      "inclination_deg": 34.99,
      "raan_deg": 54.9957,
      "arg_perigee_deg": 358.2239,
      "mean_anomaly_deg": 1.8458,
      "mean_motion_rev_day": 15.25356577
    }
  ]
}